TEVEL2-2                
1 63219U 25052K   26068.64848259  .00020339  00000+0  69428-3 0  9991
2 63219  97.3987 324.7700 0004693 105.7930 254.3828 15.30343745 54855
STARLINK-34716          
1 65352U 25190B   26068.54988769  .00022558  00000+0  77175-3 0  9997
2 65352  53.1589 168.8406 0001017  68.7579 291.3531 15.30187279 29736
